[{"OBJECT_NAME":"KUIPER-00095","OBJECT_ID":"2025-171C","EPOCH":"2026-03-09T22:00:01.999584","MEAN_MOTION":14.82527265,"ECCENTRICITY":0.00028575,"INCLINATION":51.896,"RA_OF_ASC_NODE":144.6724,"ARG_OF_PERICENTER":335.1982,"MEAN_ANOMALY":314.9018,"EPHEMERIS_TYPE":0,"CLASSIFICATION_TYPE":"U","NORAD_CAT_ID":65134,"ELEMENT_SET_NO":999,"REV_AT_EPOCH":157,"BSTAR":-0.0063567272,"MEAN_MOTION_DOT":-0.00051405,"MEAN_MOTION_DDOT":0},{"OBJECT_NAME":"GP-B","OBJECT_ID":"2004-014A","EPOCH":"2026-03-09T22:06:31.153824","MEAN_MOTION":14.83118135,"ECCENTRICITY":0.00020492,"INCLINATION":89.8435,"RA_OF_ASC_NODE":52.0728,"ARG_OF_PERICENTER":83.1375,"MEAN_ANOMALY":277.0084,"EPHEMERIS_TYPE":0,"CLASSIFICATION_TYPE":"U","NORAD_CAT_ID":28230,"ELEMENT_SET_NO":999,"REV_AT_EPOCH":63763,"BSTAR":0.00015953029,"MEAN_MOTION_DOT":1.315e-5,"MEAN_MOTION_DDOT":0}]
